PRAETORIAN SDA_616      
1 65579U 25203Q   26068.60179381  .00000173  00000+0  14695-3 0  9999
2 65579  81.3034 103.1340 0006714 111.2959 248.8915 13.83297626 24911
PRAETORIAN SDA_619      
1 65582U 25203T   26068.60413385  .00000240  00000+0  20555-3 0  9995
2 65582  81.3013 102.9558 0009419 101.1337 259.0878 13.83929489 25555
