[{"OBJECT_NAME":"PRAETORIAN SDA_616","OBJECT_ID":"2025-203Q","EPOCH":"2026-03-09T14:26:34.985184","MEAN_MOTION":13.83297626,"ECCENTRICITY":0.0006714,"INCLINATION":81.3034,"RA_OF_ASC_NODE":103.134,"ARG_OF_PERICENTER":111.2959,"MEAN_ANOMALY":248.8915,"EPHEMERIS_TYPE":0,"CLASSIFICATION_TYPE":"U","NORAD_CAT_ID":65579,"ELEMENT_SET_NO":999,"REV_AT_EPOCH":2491,"BSTAR":0.00014695,"MEAN_MOTION_DOT":1.73e-6,"MEAN_MOTION_DDOT":0},{"OBJECT_NAME":"PRAETORIAN SDA_619","OBJECT_ID":"2025-203T","EPOCH":"2026-03-09T14:29:57.164640","MEAN_MOTION":13.83929489,"ECCENTRICITY":0.0009419,"INCLINATION":81.3013,"RA_OF_ASC_NODE":102.9558,"ARG_OF_PERICENTER":101.1337,"MEAN_ANOMALY":259.0878,"EPHEMERIS_TYPE":0,"CLASSIFICATION_TYPE":"U","NORAD_CAT_ID":65582,"ELEMENT_SET_NO":999,"REV_AT_EPOCH":2555,"BSTAR":0.00020555,"MEAN_MOTION_DOT":2.4e-6,"MEAN_MOTION_DDOT":0}]
